NORAD_CAT_ID,OBJECT_NAME,OBJECT_TYPE,EPOCH,MEAN_MOTION,ECCENTRICITY,INCLINATION,RA_OF_ASC_NODE,ARG_OF_PERICENTER,MEAN_ANOMALY,BSTAR,MEAN_MOTION_DOT,MEAN_MOTION_DDOT,TLE_LINE0,TLE_LINE1,TLE_LINE2,SEMIMAJOR_AXIS,PERIOD,APOGEE,PERIGEE,DECAYED
53612.0,STARLINK-4658,PAYLOAD,2022-12-04 06:00:00,15.08842145,0.0002157,53.2144,182.7643,46.2429,76.8515,-0.0018222,-0.00029174,0.0,0 STARLINK-4658,1 53612U 22104AA  22338.25001157 -.00029174  00000-0 -18222-2 0  9997,2 53612  53.2144 182.7643 0002157  46.2429  76.8515 15.08842145 15197,6917.874,95.437,541.231,538.247,0.0
53612.0,STARLINK-4658,PAYLOAD,2022-12-04 14:00:01,15.08831093,0.0002125,53.2145,181.2671,51.1761,83.4992,0.00076682,0.00011934,0.0,0 STARLINK-4658,1 53612U 22104AA  22338.58334491  .00011934  00000-0  76682-3 0  9991,2 53612  53.2145 181.2671 0002125  51.1761  83.4992 15.08831093  1303,6917.908,95.438,541.243,538.303,0.0
53612.0,STARLINK-4658,PAYLOAD,2022-12-04 22:00:00,15.08824292,0.0002312,53.2143,179.7725,46.5583,99.7093,0.00098487,0.00015414,0.0,0 STARLINK-4658,1 53612U 22104AA  22338.91667824  .00015414  00000-0  98487-3 0  9991,2 53612  53.2143 179.7725 0002312  46.5583  99.7093 15.08824292 15299,6917.928000000001,95.439,541.393,538.194,0.0
53612.0,STARLINK-4658,PAYLOAD,2022-12-05 12:00:00,15.08827502,0.0002192,53.2141,177.1517,51.5488,25.0049,0.0025289,0.00040176,0.0,0 STARLINK-4658,1 53612U 22104AA  22339.50001157  .00040176  00000-0  25289-2 0  9990,2 53612  53.2141 177.1517 0002192  51.5488  25.0049 15.08827502  1301,6917.919,95.438,541.3,538.2669999999998,0.0
53612.0,STARLINK-4658,PAYLOAD,2022-12-05 19:36:41,15.08837105,0.0002268,53.2167,175.7289,48.0186,312.0999,9.4544e-05,1.217e-05,0.0,0 STARLINK-4658,1 53612U 22104AA  22339.81714212  .00001217  00000-0  94544-4 0  9992,2 53612  53.2167 175.7289 0002268  48.0186 312.0999 15.08837105 16005,6917.889,95.438,541.323,538.185,0.0
53612.0,STARLINK-4658,PAYLOAD,2022-12-06 13:05:55,15.08843309,0.0002304,53.2166,172.4579,49.1118,311.0074,8.8187e-05,1.116e-05,0.0,0 STARLINK-4658,1 53612U 22104AA  22340.54577829  .00001116  00000-0  88187-4 0  9999,2 53612  53.2166 172.4579 0002304  49.1118 311.0074 15.08843309 16116,6917.87,95.437,541.3290000000002,538.141,0.0
53612.0,STARLINK-4658,PAYLOAD,2022-12-06 19:27:28,15.08833845,0.0002318,53.2165,171.2684,48.3866,311.7324,5.9941e-06,-1.93e-06,0.0,0 STARLINK-4658,1 53612U 22104AA  22340.81074692 -.00000193  00000-0  59941-5 0  9991,2 53612  53.2165 171.2684 0002318  48.3866 311.7324 15.08833845 16158,6917.899,95.438,541.368,538.161,0.0
53612.0,STARLINK-4658,PAYLOAD,2022-12-06 22:38:15,15.08831794,0.0002276,53.2166,170.6734,48.19600000000001,311.9226,-4.2225e-05,-9.6e-06,0.0,0 STARLINK-4658,1 53612U 22104AA  22340.94323015 -.00000960  00000-0 -42225-4 0  9990,2 53612  53.2166 170.6734 0002276  48.1960 311.9226 15.08831794 15607,6917.905,95.438,541.345,538.196,0.0
53612.0,STARLINK-4658,PAYLOAD,2022-12-07 19:18:15,15.08836732,0.0002272,53.2164,166.8074,49.0403,311.0785,-1.1239e-05,-4.67e-06,0.0,0 STARLINK-4658,1 53612U 22104AA  22341.80434768 -.00000467  00000-0 -11239-4 0  9997,2 53612  53.2164 166.8074 0002272  49.0403 311.0785 15.08836732 16303,6917.89,95.438,541.327,538.184,0.0
53612.0,STARLINK-4658,PAYLOAD,2022-12-08 12:47:29,15.08854349,0.0002283,53.2161,163.5366,47.5257,312.5928,-0.00015925,-2.823e-05,0.0,0 STARLINK-4658,1 53612U 22104AA  22342.53298063 -.00002823  00000-0 -15925-3 0  9997,2 53612  53.2161 163.5366 0002283  47.5257 312.5928 15.08854349 16411,6917.837,95.437,541.281,538.122,0.0
53612.0,STARLINK-4658,PAYLOAD,2022-12-08 19:09:02,15.08843722,0.0002298,53.2165,162.3474,50.7072,309.4124,1.149e-05,-1.05e-06,0.0,0 STARLINK-4658,1 53612U 22104AA  22342.79794080 -.00000105  00000-0  11490-4 0  9999,2 53612  53.2165 162.3474 0002298  50.7072 309.4124 15.08843722 15885,6917.869000000002,95.437,541.3240000000002,538.144,0.0
53612.0,STARLINK-4658,PAYLOAD,2022-12-09 12:38:20,15.08784899,0.0002279,53.218,159.08100000000005,25.6786,334.4319,-0.00040305,-6.688e-05,0.0,0 STARLINK-4658,1 53612U 22104AA  22343.52662930 -.00006688  00000-0 -40305-3 0  9998,2 53612  53.2180 159.0810 0002279  25.6786 334.4319 15.08784899 15996,6918.049,95.441,541.49,538.337,0.0
53612.0,STARLINK-4658,PAYLOAD,2022-12-10 01:21:22,15.08830839,0.0002475,53.217,156.6986,46.6487,313.4711,-6.2073e-05,-1.276e-05,0.0,0 STARLINK-4658,1 53612U 22104AA  22344.05651222 -.00001276  00000-0 -62073-4 0  9994,2 53612  53.2170 156.6986 0002475  46.6487 313.4711 15.08830839 16070,6917.908,95.438,541.486,538.061,0.0
53612.0,STARLINK-4658,PAYLOAD,2022-12-10 17:15:13,15.08836424,0.0002384,53.2166,153.7234,60.2052,299.9177,5.2093e-05,5.41e-06,0.0,0 STARLINK-4658,1 53612U 22104AA  22344.71890437  .00000541  00000-0  52093-4 0  9993,2 53612  53.2166 153.7234 0002384  60.2052 299.9177 15.08836424 16179,6917.891,95.438,541.406,538.107,0.0
53612.0,STARLINK-4658,PAYLOAD,2022-12-10 18:50:36,15.08838081,0.0002379,53.2167,153.4259,61.8955,298.2277,5.8155e-05,6.37e-06,0.0,0 STARLINK-4658,1 53612U 22104AA  22344.78514310  .00000637  00000-0  58155-4 0  9994,2 53612  53.2167 153.4259 0002379  61.8955 298.2277 15.08838081 16755,6917.886,95.438,541.3969999999998,538.105,0.0
53612.0,STARLINK-4658,PAYLOAD,2022-12-11 12:19:50,15.08837876,0.0002009,53.2168,150.1543,51.153,308.9641,8.5021e-05,1.065e-05,0.0,0 STARLINK-4658,1 53612U 22104AA  22345.51377910  .00001065  00000-0  85021-4 0  9997,2 53612  53.2168 150.1543 0002009  51.1530 308.9641 15.08837876 16864,6917.887,95.438,541.1419999999998,538.362,0.0
53612.0,STARLINK-4658,PAYLOAD,2022-12-11 20:16:46,15.08832356,0.0002258,53.2166,148.6678,51.5182,308.6013,-8.2589e-06,-4.2e-06,0.0,0 STARLINK-4658,1 53612U 22104AA  22345.84498755 -.00000420  00000-0 -82589-5 0  9997,2 53612  53.2166 148.6678 0002258  51.5182 308.6013 15.08832356 16347,6917.904,95.438,541.331,538.207,0.0
53612.0,STARLINK-4658,PAYLOAD,2022-12-13 04:04:28,15.08845837,0.0002139,53.2161,142.72,52.2742,307.8444,3.0166e-05,1.92e-06,0.0,0 STARLINK-4658,1 53612U 22104AA  22347.16977567  .00000192  00000-0  30166-4 0  9994,2 53612  53.2161 142.7200 0002139  52.2742 307.8444 15.08845837 16545,6917.863,95.437,541.207,538.248,0.0
53612.0,STARLINK-4658,PAYLOAD,2022-12-13 10:26:00,15.08868028,0.0002377,53.2166,141.531,55.98,304.1418,-0.00041536,-6.898e-05,0.0,0 STARLINK-4658,1 53612U 22104AA  22347.43473350 -.00006898  00000-0 -41536-3 0  9998,2 53612  53.2166 141.5310 0002377  55.9800 304.1418 15.08868028 16580,6917.795,95.436,541.304,538.015,0.0
53612.0,STARLINK-4658,PAYLOAD,2022-12-13 16:47:34,15.08834119,0.0002232,53.2168,140.3418,55.8206,304.2997,2.4433e-05,1.01e-06,0.0,0 STARLINK-4658,1 53612U 22104AA  22347.69970268  .00000101  00000-0  24433-4 0  9993,2 53612  53.2168 140.3418 0002232  55.8206 304.2997 15.08834119 16629,6917.898,95.438,541.307,538.219,0.0
53612.0,STARLINK-4658,PAYLOAD,2022-12-14 10:16:48,15.08841259,0.0002223,53.2158,137.0692,59.4842,300.6369,6.6121e-05,7.64e-06,0.0,0 STARLINK-4658,1 53612U 22104AA  22348.42833368  .00000764  00000-0  66121-4 0  9999,2 53612  53.2158 137.0692 0002223  59.4842 300.6369 15.08841259 17303,6917.877,95.437,541.279,538.2040000000002,0.0
53612.0,STARLINK-4658,PAYLOAD,2022-12-14 18:13:44,15.08829835,0.0002164,53.2178,135.5835,51.9981,308.1207,5.4687e-05,5.82e-06,0.0,0 STARLINK-4658,1 53612U 22104AA  22348.75954030  .00000582  00000-0  54687-4 0  9997,2 53612  53.2178 135.5835 0002164  51.9981 308.1207 15.08829835 16783,6917.911,95.438,541.273,538.279,0.0
53612.0,STARLINK-4658,PAYLOAD,2022-12-15 13:18:21,15.08829811,0.0002026,53.2177,132.016,47.0401,313.0761,0.00011897,1.605e-05,0.0,0 STARLINK-4658,1 53612U 22104AA  22349.55442067  .00001605  00000-0  11897-3 0  9990,2 53612  53.2177 132.0160 0002026  47.0401 313.0761 15.08829811 17476,6917.9119999999975,95.438,541.178,538.375,0.0
53612.0,STARLINK-4658,PAYLOAD,2022-12-15 19:39:54,15.08829018,0.0002204,53.2177,130.8262,47.4863,312.6315,0.00011801,1.59e-05,0.0,0 STARLINK-4658,1 53612U 22104AA  22349.81938238  .00001590  00000-0  11801-3 0  9997,2 53612  53.2177 130.8262 0002204  47.4863 312.6315 15.08829018 17513,6917.9140000000025,95.438,541.304,538.254,0.0
53612.0,STARLINK-4658,PAYLOAD,2022-12-16 13:09:09,15.08832143,0.000212,53.2163,127.5553,47.4994,312.6177,-6.759099999999999e-06,-3.96e-06,0.0,0 STARLINK-4658,1 53612U 22104AA  22350.54802554 -.00000396  00000-0 -67591-5 0  9994,2 53612  53.2163 127.5553 0002120  47.4994 312.6177 15.08832143 17627,6917.904,95.438,541.236,538.303,0.0
53612.0,STARLINK-4658,PAYLOAD,2022-12-16 19:30:42,15.08826714,0.0002117,53.2171,126.3666,45.7176,314.3989,-4.0516e-05,-9.33e-06,0.0,0 STARLINK-4658,1 53612U 22104AA  22350.81299188 -.00000933  00000-0 -40516-4 0  9991,2 53612  53.2171 126.3666 0002117  45.7176 314.3989 15.08826714 17668,6917.920999999999,95.438,541.251,538.321,0.0
53612.0,STARLINK-4658,PAYLOAD,2022-12-17 01:52:15,15.08827881,0.0002104,53.2172,125.1771,46.2665,313.8502,-6.226800000000001e-05,-1.279e-05,0.0,0 STARLINK-4658,1 53612U 22104AA  22351.07795373 -.00001279  00000-0 -62268-4 0  9999,2 53612  53.2172 125.1771 0002104  46.2665 313.8502 15.08827881 17131,6917.917,95.438,541.238,538.327,0.0
53612.0,STARLINK-4658,PAYLOAD,2022-12-17 09:49:10,15.08832191,0.000209,53.217,123.6899,44.8037,315.3124,7.028500000000001e-06,-1.76e-06,0.0,0 STARLINK-4658,1 53612U 22104AA  22351.40915008 -.00000176  00000-0  70285-5 0  9998,2 53612  53.2170 123.6899 0002090  44.8037 315.3124 15.08832191 17759,6917.904,95.438,541.215,538.323,0.0
53612.0,STARLINK-4658,PAYLOAD,2022-12-17 16:10:42,15.08838401,0.0002099,53.217,122.5007,44.9327,315.1835,5.1926e-05,5.38e-06,0.0,0 STARLINK-4658,1 53612U 22104AA  22351.67410546  .00000538  00000-0  51926-4 0  9995,2 53612  53.2170 122.5007 0002099  44.9327 315.1835 15.08838401 17229,6917.885,95.438,541.202,538.298,0.0
